OBJECT_NAME,OBJECT_ID,EPOCH,MEAN_MOTION,ECCENTRICITY,INCLINATION,RA_OF_ASC_NODE,ARG_OF_PERICENTER,MEAN_ANOMALY,EPHEMERIS_TYPE,CLASSIFICATION_TYPE,NORAD_CAT_ID,ELEMENT_SET_NO,REV_AT_EPOCH,BSTAR,MEAN_MOTION_DOT,MEAN_MOTION_DDOT
NIMIQ 2,2002-062A,2026-07-04T15:04:49.821888,1.00272071,.00055309,9.4836,56.7105,44.0933,298.8598,0,U,27632,999,4435,0,-.61E-6,0
USA 167,2003-008A,2026-07-03T06:26:38.763744,1.00272289,.0003348,10.9909,43.2613,316.9630,256.0432,0,U,27691,999,693,0,.1E-6,0
USA 169 (MILSTAR-2 4),2003-012A,2026-07-04T21:27:16.150752,1.00270773,.01000037,12.3746,29.6922,10.0463,357.1170,0,U,27711,999,3313,0,-.226E-5,0
ASIASAT 4,2003-014A,2026-07-04T21:26:01.271328,1.00272323,.00028432,4.7484,75.5241,28.1138,288.3058,0,U,27718,999,4547,0,-.211E-5,0
HELLAS-SAT 2,2003-020A,2026-07-04T20:41:03.886656,1.00271959,.00032768,7.3955,67.6725,64.8049,90.6310,0,U,27811,999,4302,0,-.75E-6,0
THURAYA-2,2003-026A,2026-07-04T18:26:40.922880,1.00271696,.0002722,8.8661,31.8972,18.1360,193.4197,0,U,27825,999,8452,0,.134E-5,0
OPTUS C1,2003-028B,2026-07-04T21:28:23.542752,1.00270970,.00055444,6.9309,69.1953,31.3891,300.1719,0,U,27831,999,5323,0,-.141E-5,0
USA 170,2003-040A,2026-07-02T20:28:10.431264,1.00272797,.00017181,10.5312,47.7972,42.7502,161.5742,0,U,27875,999,3315,0,.132E-5,0
GALAXY 13 (HORIZONS-1),2003-044A,2026-07-04T18:18:25.602048,1.00273255,.00017187,1.4638,83.6382,18.0176,305.6987,0,U,27954,999,4674,0,.145E-5,0
YAMAL 202,2003-053A,2026-07-04T21:30:30.840192,1.00272058,.00033858,6.3867,70.7243,25.2223,313.1275,0,U,28089,999,8287,0,-.7E-6,0
UFO 11 (USA 174),2003-057A,2026-07-04T20:57:38.179584,1.00272596,.00028923,8.9412,33.7362,88.1893,190.9832,0,U,28117,999,8262,0,-.96E-6,0
USA 176 (DSP 22),2004-004A,2026-07-04T10:13:56.947584,1.00270629,.00008146,12.0840,25.9377,305.4665,55.2413,0,U,28158,999,3311,0,-.288E-5,0
ABS-4 (MOBISAT-1),2004-007A,2026-07-04T21:29:29.192928,1.00270858,.00045671,6.0852,71.7920,31.6375,202.7766,0,U,28184,999,5251,0,.5E-6,0
INTELSAT 10-02,2004-022A,2026-07-04T22:26:10.638240,1.00271274,.00004409,0.0398,258.9526,290.2142,69.3115,0,U,28358,999,8073,0,.2E-7,0
ANIK F2,2004-027A,2026-07-04T21:54:52.341984,1.00271758,.00039612,3.3303,79.2143,22.9570,38.3429,0,U,28378,999,4144,0,-.38E-6,0
AMC-15,2004-041A,2026-07-04T21:56:37.175424,1.00271637,.00023866,0.0190,334.6561,134.3782,37.9883,0,U,28446,999,7948,0,-.76E-6,0
NSS-10,2005-003A,2026-07-04T22:15:56.620224,1.00272179,.00029454,6.4909,70.2385,32.3203,116.9107,0,U,28526,999,5333,0,-.241E-5,0
INMARSAT 4-F1,2005-009A,2026-07-04T21:34:37.945056,1.00271745,.00028545,5.1904,42.7716,64.6224,317.2802,0,U,28628,999,7785,0,.43E-6,0
DIRECTV 8,2005-019A,2026-07-04T15:01:57.597312,1.00269914,.00032106,0.0203,40.4002,77.7700,270.9081,0,U,28659,999,7724,0,0,0
GALAXY 28 (G-28),2005-022A,2026-07-04T22:18:48.844800,1.00269863,.00024137,3.3414,78.7199,25.0359,126.7797,0,U,28702,999,5215,0,-.189E-5,0
THAICOM 4,2005-028A,2026-07-04T21:19:38.637696,1.00271876,.00018037,0.2882,85.6791,2.9158,273.7199,0,U,28786,999,5242,0,-.35E-5,0
ANIK F1R,2005-036A,2026-07-04T20:13:13.728000,1.00271832,.00041415,4.3548,76.3648,17.1952,25.2962,0,U,28868,999,4663,0,-.64E-6,0
SYRACUSE 3A,2005-041B,2026-07-04T21:13:43.483584,1.00269545,.00027401,4.6861,75.6215,18.3545,193.9801,0,U,28885,999,7592,0,.14E-5,0
INMARSAT 4-F2,2005-044A,2026-07-04T12:51:27.002880,1.00270872,.00031405,5.1161,43.6573,51.2893,163.9427,0,U,28899,999,7569,0,-.25E-5,0
METEOSAT-9 (MSG-2),2005-049B,2026-07-04T17:31:39.317088,1.00268028,.00023882,9.3983,53.9918,0.4955,176.8994,0,U,28912,999,717,0,.133E-5,0
EUTELSAT 174A,2005-052A,2026-07-04T21:33:30.553056,1.00269498,.00060626,4.2605,76.3124,28.8012,315.1611,0,U,28924,999,5250,0,.19E-6,0
ECHOSTAR 10,2006-003A,2026-07-04T20:12:21.310848,1.00272250,.00015355,0.0273,318.8271,109.7617,47.1691,0,U,28935,999,7464,0,-.43E-6,0
SPAINSAT,2006-007A,2026-07-04T07:11:41.405856,1.00272731,.00050087,0.6048,86.2754,13.8631,259.9155,0,U,28945,999,7438,0,-.205E-5,0
JCSAT-5A,2006-010A,2026-07-04T21:21:31.700736,1.00271753,.00020248,1.1525,84.0495,11.6540,279.6203,0,U,29045,999,7394,0,-.315E-5,0
ASTRA 1KR,2006-012A,2026-07-04T22:32:01.175136,1.00272191,.00035625,0.5168,83.2275,15.0532,181.6566,0,U,29055,999,4587,0,.132E-5,0
GALAXY 16 (G-16),2006-023A,2026-07-04T21:58:22.007136,1.00271282,.00026346,0.0274,136.8364,327.6433,49.0325,0,U,29236,999,7315,0,-.114E-5,0
EUTELSAT 33F,2006-032A,2026-07-04T22:53:50.750304,1.00273756,.00035769,1.7045,82.0573,21.9205,195.5265,0,U,29270,999,4748,0,.168E-5,0
