NIMIQ 2                 
1 27632U 02062A   26185.62835442 -.00000061  00000+0  00000+0 0  9992
2 27632   9.4836  56.7105 0005530  44.0933 298.8598  1.00272071 44357
USA 167                 
1 27691U 03008A   26184.26850421  .00000010  00000+0  00000+0 0  9994
2 27691  10.9909  43.2613 0003348 316.9630 256.0432  1.00272289  6931
USA 169 (MILSTAR-2 4)   
1 27711U 03012A   26185.89393693 -.00000226  00000+0  00000+0 0  9995
2 27711  12.3746  29.6922 0100003  10.0463 357.1170  1.00270773 33132
ASIASAT 4               
1 27718U 03014A   26185.89307027 -.00000211  00000+0  00000+0 0  9994
2 27718   4.7484  75.5241 0002843  28.1138 288.3058  1.00272323 45472
HELLAS-SAT 2            
1 27811U 03020A   26185.86185054 -.00000075  00000+0  00000+0 0  9994
2 27811   7.3955  67.6725 0003276  64.8049  90.6310  1.00271959 43024
THURAYA-2               
1 27825U 03026A   26185.76852920  .00000134  00000+0  00000+0 0  9992
2 27825   8.8661  31.8972 0002722  18.1360 193.4197  1.00271696 84522
OPTUS C1                
1 27831U 03028B   26185.89471693 -.00000141  00000+0  00000+0 0  9998
2 27831   6.9309  69.1953 0005544  31.3891 300.1719  1.00270970 53236
USA 170                 
1 27875U 03040A   26183.85289851  .00000132  00000+0  00000+0 0  9996
2 27875  10.5312  47.7972 0001718  42.7502 161.5742  1.00272797 33159
GALAXY 13 (HORIZONS-1)  
1 27954U 03044A   26185.76279632  .00000145  00000+0  00000+0 0  9990
2 27954   1.4638  83.6382 0001718  18.0176 305.6987  1.00273255 46745
YAMAL 202               
1 28089U 03053A   26185.89619028 -.00000070  00000+0  00000+0 0  9999
2 28089   6.3867  70.7243 0003385  25.2223 313.1275  1.00272058 82879
UFO 11 (USA 174)        
1 28117U 03057A   26185.87335856 -.00000096  00000+0  00000+0 0  9995
2 28117   8.9412  33.7362 0002892  88.1893 190.9832  1.00272596 82629
USA 176 (DSP 22)        
1 28158U 04004A   26185.42635356 -.00000288  00000+0  00000+0 0  9995
2 28158  12.0840  25.9377 0000814 305.4665  55.2413  1.00270629 33111
ABS-4 (MOBISAT-1)       
1 28184U 04007A   26185.89547677  .00000050  00000+0  00000+0 0  9992
2 28184   6.0852  71.7920 0004567  31.6375 202.7766  1.00270858 52513
INTELSAT 10-02          
1 28358U 04022A   26185.93484535  .00000002  00000+0  00000+0 0  9997
2 28358   0.0398 258.9526 0000440 290.2142  69.3115  1.00271274 80730
ANIK F2                 
1 28378U 04027A   26185.91310581 -.00000038  00000+0  00000+0 0  9991
2 28378   3.3303  79.2143 0003961  22.9570  38.3429  1.00271758 41445
AMC-15                  
1 28446U 04041A   26185.91431916 -.00000076  00000+0  00000+0 0  9991
2 28446   0.0190 334.6561 0002386 134.3782  37.9883  1.00271637 79484
NSS-10                  
1 28526U 05003A   26185.92773866 -.00000241  00000+0  00000+0 0  9997
2 28526   6.4909  70.2385 0002945  32.3203 116.9107  1.00272179 53339
INMARSAT 4-F1           
1 28628U 05009A   26185.89905029  .00000043  00000+0  00000+0 0  9999
2 28628   5.1904  42.7716 0002854  64.6224 317.2802  1.00271745 77854
DIRECTV 8               
1 28659U 05019A   26185.62636108  .00000000  00000+0  00000+0 0  9997
2 28659   0.0203  40.4002 0003210  77.7700 270.9081  1.00269914 77240
GALAXY 28 (G-28)        
1 28702U 05022A   26185.92973200 -.00000189  00000+0  00000+0 0  9999
2 28702   3.3414  78.7199 0002413  25.0359 126.7797  1.00269863 52158
THAICOM 4               
1 28786U 05028A   26185.88864164 -.00000350  00000+0  00000+0 0  9990
2 28786   0.2882  85.6791 0001803   2.9158 273.7199  1.00271876 52429
ANIK F1R                
1 28868U 05036A   26185.84252000 -.00000064  00000+0  00000+0 0  9998
2 28868   4.3548  76.3648 0004141  17.1952  25.2962  1.00271832 46636
SYRACUSE 3A             
1 28885U 05041B   26185.88453106  .00000140  00000+0  00000+0 0  9991
2 28885   4.6861  75.6215 0002740  18.3545 193.9801  1.00269545 75929
INMARSAT 4-F2           
1 28899U 05044A   26185.53572920 -.00000250  00000+0  00000+0 0  9990
2 28899   5.1161  43.6573 0003140  51.2893 163.9427  1.00270872 75692
METEOSAT-9 (MSG-2)      
1 28912U 05049B   26185.73031617  .00000133  00000+0  00000+0 0  9995
2 28912   9.3983  53.9918 0002388   0.4955 176.8994  1.00268028  7171
EUTELSAT 174A           
1 28924U 05052A   26185.89827029  .00000019  00000+0  00000+0 0  9992
2 28924   4.2605  76.3124 0006062  28.8012 315.1611  1.00269498 52501
ECHOSTAR 10             
1 28935U 06003A   26185.84191332 -.00000043  00000+0  00000+0 0  9995
2 28935   0.0273 318.8271 0001535 109.7617  47.1691  1.00272250 74644
SPAINSAT                
1 28945U 06007A   26185.29978479 -.00000205  00000+0  00000+0 0  9994
2 28945   0.6048  86.2754 0005008  13.8631 259.9155  1.00272731 74386
JCSAT-5A                
1 29045U 06010A   26185.88995024 -.00000315  00000+0  00000+0 0  9992
2 29045   1.1525  84.0495 0002024  11.6540 279.6203  1.00271753 73949
ASTRA 1KR               
1 29055U 06012A   26185.93890249  .00000132  00000+0  00000+0 0  9990
2 29055   0.5168  83.2275 0003562  15.0532 181.6566  1.00272191 45872
GALAXY 16 (G-16)        
1 29236U 06023A   26185.91553249 -.00000114  00000+0  00000+0 0  9998
2 29236   0.0274 136.8364 0002634 327.6433  49.0325  1.00271282 73153
EUTELSAT 33F            
1 29270U 06032A   26185.95405961  .00000168  00000+0  00000+0 0  9995
2 29270   1.7045  82.0573 0003576  21.9205 195.5265  1.00273756 47481
